H1 CPF 01  gfz 2021 06 25 12  6762 tandemx   
H2 1003001  6202 36605    2021 06 25 12 59 42 2021 06 30 00 00 42   120 1 1  0 0 0
H9
10 0 59393  52542.000000  0   -1361327.868  -2975590.057   6051390.145
10 0 59393  52662.000000  0   -1926837.166  -3530789.378   5582192.787
10 0 59393  52782.000000  0   -2467788.597  -4014643.005   5014811.379
10 0 59393  52902.000000  0   -2973398.835  -4419198.170   4359191.879
10 0 59393  53022.000000  0   -3433372.460  -4738068.976   3626844.047
10 0 59393  53142.000000  0   -3838114.282  -4966542.856   2830640.827
10 0 59393  53262.000000  0   -4178930.920  -5101654.675   1984591.991
10 0 59393  53382.000000  0   -4448219.006  -5142226.660   1103594.663
10 0 59393  53502.000000  0   -4639634.002  -5088871.670    203165.059
10 0 59393  53622.000000  0   -4748235.348  -4943960.247   -700842.392
10 0 59393  53742.000000  0   -4770604.136  -4711552.011  -1592523.582
10 0 59393  53862.000000  0   -4704929.121  -4397292.147  -2456214.064
10 0 59393  53982.000000  0   -4551059.205  -4008276.010  -3276771.095
10 0 59393  54102.000000  0   -4310522.165  -3552887.191  -4039842.156
10 0 59393  54222.000000  0   -3986510.061  -3040613.723  -4732115.598
10 0 59393  54342.000000  0   -3583832.088  -2481846.382  -5341549.080
10 0 59393  54462.000000  0   -3108836.392  -1887664.664  -5857571.458
10 0 59393  54582.000000  0   -2569303.992  -1269615.420  -6271256.393
10 0 59393  54702.000000  0   -1974316.269   -639488.281  -6575466.027
10 0 59393  54822.000000  0   -1334098.710     -9092.732  -6764962.102
10 0 59393  54942.000000  0    -659846.110    609958.384  -6836485.016
10 0 59393  55062.000000  0      36469.323   1206457.082  -6788804.052
10 0 59393  55182.000000  0     742304.789   1769797.568  -6622735.997
10 0 59393  55302.000000  0    1444767.048   2290160.376  -6341135.189
10 0 59393  55422.000000  0    2130843.458   2758681.407  -5948849.686
10 0 59393  55542.000000  0    2787639.034   3167602.772  -5452646.336
10 0 59393  55662.000000  0    3402615.871   3510402.009  -4861104.267
10 0 59393  55782.000000  0    3963832.615   3781900.255  -4184479.012
10 0 59393  55902.000000  0    4460179.706   3978345.505  -3434535.158
10 0 59393  56022.000000  0    4881604.879   4097468.576  -2624349.308
10 0 59393  56142.000000  0    5219322.181   4138510.001  -1768086.285
10 0 59393  56262.000000  0    5466001.113   4102217.343   -880752.376
10 0 59393  56382.000000  0    5615929.676   3990811.717     22070.630
10 0 59393  56502.000000  0    5665147.563   3807924.795    924504.222
10 0 59393  56622.000000  0    5611546.025   3558506.284   1810660.505
10 0 59393  56742.000000  0    5454929.885   3248703.871   2664930.865
10 0 59393  56862.000000  0    5197040.494   2885720.277   3472269.740
10 0 59393  56982.000000  0    4841538.940   2477649.562   4218467.174
10 0 59393  57102.000000  0    4393949.321   2033296.725   4890402.109
10 0 59393  57222.000000  0    3861568.573   1561988.463   5476273.555
10 0 59393  57342.000000  0    3253338.834   1073376.628   5965808.357
10 0 59393  57462.000000  0    2579688.303    577238.728   6350435.378
10 0 59393  57582.000000  0    1852347.066     83282.916   6623427.863
10 0 59393  57702.000000  0    1084140.266   -399040.507   6780016.286
10 0 59393  57822.000000  0     288759.233   -860719.608   6817468.037
10 0 59393  57942.000000  0    -519483.674  -1293348.691   6735131.075
10 0 59393  58062.000000  0   -1325912.282  -1689281.129   6534443.900
10 0 59393  58182.000000  0   -2115751.844  -2041764.447   6218910.457
10 0 59393  58302.000000  0   -2874397.360  -2345054.836   5794043.263
10 0 59393  58422.000000  0   -3587685.267  -2594512.695   5267275.937
10 0 59393  58542.000000  0   -4242163.392  -2786676.094   4647838.457
10 0 59393  58662.000000  0   -4825349.817  -2919309.294   3946599.330
10 0 59393  58782.000000  0   -5325977.130  -2991425.372   3175878.047
10 0 59393  58902.000000  0   -5734217.391  -3003283.373   2349230.836
10 0 59393  59022.000000  0   -6041883.524  -2956360.432   1481211.086
10 0 59393  59142.000000  0   -6242600.113  -2853298.197    587107.273
10 0 59393  59262.000000  0   -6331938.362  -2697823.329   -317333.651
10 0 59393  59382.000000  0   -6307513.720  -2494646.288  -1216192.294
10 0 59393  59502.000000  0   -6169040.817  -2249339.227  -2093667.235
10 0 59393  59622.000000  0   -5918344.796  -1968197.423  -2934360.090
10 0 59393  59742.000000  0   -5559331.492  -1658088.011  -3723550.264
10 0 59393  59862.000000  0   -5097916.575  -1326289.911  -4447454.171
10 0 59393  59982.000000  0   -4541916.844   -980329.055  -5093463.758
10 0 59393  60102.000000  0   -3900906.064   -627812.457  -5650360.744
10 0 59393  60222.000000  0   -3186039.448   -276265.524  -6108502.078
10 0 59393  60342.000000  0   -2409852.266     67023.997  -6459975.276
10 0 59393  60462.000000  0   -1586036.526    395151.926  -6698723.347
10 0 59393  60582.000000  0    -729199.402    701730.883  -6820638.211
10 0 59393  60702.000000  0     145391.401    981010.718  -6823623.051
10 0 59393  60822.000000  0    1022072.201   1227982.681  -6707624.037
10 0 59393  60942.000000  0    1885057.121   1438466.723  -6474634.019
10 0 59393  61062.000000  0    2718716.955   1609181.904  -6128662.135
10 0 59393  61182.000000  0    3507858.009   1737797.108  -5675671.457
10 0 59393  61302.000000  0    4237995.727   1822961.697  -5123485.775
10 0 59393  61422.000000  0    4895621.970   1864316.633  -4481666.893
10 0 59393  61542.000000  0    5468460.483   1862485.012  -3761359.523
10 0 59393  61662.000000  0    5945703.525   1819041.436  -2975106.719
10 0 59393  61782.000000  0    6318226.348   1736461.102  -2136638.811
10 0 59393  61902.000000  0    6578774.098   1618049.729  -1260636.008
10 0 59393  62022.000000  0    6722114.102   1467854.584   -362469.732
10 0 59393  62142.000000  0    6745149.839   1290558.569    542072.645
10 0 59393  62262.000000  0    6646991.298   1091361.036   1437071.889
10 0 59393  62382.000000  0    6428984.560    875847.579   2306765.164
10 0 59393  62502.000000  0    6094693.904    649851.103   3135833.760
10 0 59393  62622.000000  0    5649839.468    419309.232   3909680.179
10 0 59393  62742.000000  0    5102190.835    190121.241   4614690.716
10 0 59393  62862.000000  0    4461422.596    -31990.672   5238476.258
10 0 59393  62982.000000  0    3738933.238   -241615.143   5770090.711
10 0 59393  63102.000000  0    2947631.824   -433774.655   6200218.640
10 0 59393  63222.000000  0    2101700.314   -604035.747   6521332.829
10 0 59393  63342.000000  0    1216334.872   -748605.455   6727820.625
10 0 59393  63462.000000  0     307469.006   -864411.984   6816077.322
10 0 59393  63582.000000  0    -608514.682   -949167.482   6784563.901
10 0 59393  63702.000000  0   -1515078.987  -1001412.764   6633831.255
10 0 59393  63822.000000  0   -2395829.269  -1020542.392   6366510.490
10 0 59393  63942.000000  0   -3234808.167  -1006809.888   5987270.048
10 0 59393  64062.000000  0   -4016786.154   -961313.385   5502741.143
10 0 59393  64182.000000  0   -4727543.021   -885962.869   4921408.443
10 0 59393  64302.000000  0   -5354133.705   -783428.332   4253466.706
10 0 59393  64422.000000  0   -5885132.341   -657069.855   3510645.334
10 0 59393  64542.000000  0   -6310849.064   -510851.092   2706004.452
10 0 59393  64662.000000  0   -6623517.194   -349237.979   1853706.124
10 0 59393  64782.000000  0   -6817445.293   -177084.692    968761.090
10 0 59393  64902.000000  0   -6889127.465       489.457     66757.204
10 0 59393  65022.000000  0   -6837309.906    178229.924   -836423.779
10 0 59393  65142.000000  0   -6663011.410    350880.319  -1724895.192
10 0 59393  65262.000000  0   -6369498.046    513315.018  -2583051.835
10 0 59393  65382.000000  0   -5962215.715    660668.287  -3395850.642
10 0 59393  65502.000000  0   -5448676.791    788456.850  -4149079.405
10 0 59393  65622.000000  0   -4838308.011    892692.496  -4829604.136
10 0 59393  65742.000000  0   -4142264.381    969981.843  -5425593.475
10 0 59393  65862.000000  0   -3373214.302   1017611.432  -5926715.856
10 0 59393  65982.000000  0   -2545100.970   1033615.983  -6324307.909
10 0 59393  66102.000000  0   -1672885.998   1016829.447  -6611512.357
10 0 59393  66222.000000  0    -772278.455    966918.991  -6783385.262
10 0 59393  66342.000000  0     140544.161    884399.832  -6836970.488
10 0 59393  66462.000000  0    1049218.365    770631.875  -6771345.118
10 0 59393  66582.000000  0    1937481.306    627797.635  -6587636.276
10 0 59393  66702.000000  0    2789456.052    458861.886  -6289003.563
10 0 59393  66822.000000  0    3589930.611    267514.089  -5880590.468
10 0 59393  66942.000000  0    4324626.567     58093.045  -5369444.030
10 0 59393  67062.000000  0    4980454.126   -164504.054  -4764405.003
10 0 59393  67182.000000  0    5545751.504   -394927.041  -4075966.722
10 0 59393  67302.000000  0    6010500.709   -627491.241  -3316102.553
10 0 59393  67422.000000  0    6366516.010   -856306.618  -2498065.689
10 0 59393  67542.000000  0    6607601.143  -1075415.109  -1636162.492
10 0 59393  67662.000000  0    6729669.726  -1278932.183   -745502.371
10 0 59393  67782.000000  0    6730825.014  -1461189.651    158270.154
10 0 59393  67902.000000  0    6611397.408  -1616876.173   1059256.438
10 0 59393  68022.000000  0    6373936.254  -1741171.827   1941591.974
10 0 59393  68142.000000  0    6023157.489  -1829873.305   2789734.873
10 0 59393  68262.000000  0    5565846.597  -1879505.188   3588748.662
10 0 59393  68382.000000  0    5010720.246  -1887416.055   4324571.285
10 0 59393  68502.000000  0    4368251.361  -1851856.127   4984265.387
10 0 59393  68622.000000  0    3650463.309  -1772034.446   5556246.386
10 0 59393  68742.000000  0    2870695.595  -1648155.681   6030484.835
10 0 59393  68862.000000  0    2043347.776  -1481435.020   6398676.882
10 0 59393  68982.000000  0    1183608.542  -1274091.821   6654384.015
99
